#aV2012  7  1  0  0  0.00000000      95 PS+CP WGS84 FIT NSWC
## 1695      0.00000000   900.00000000 56109 0.0000000000000
+   31     1  2  3  4  5  6  7  8  9 10 11 12 13 14 15 16 17
+         18 19 20 21 22 23 25 26 27 28 29 30 31 32  0  0  0
+          0  0  0  0  0  0  0  0  0  0  0  0  0  0  0  0  0
+          0  0  0  0  0  0  0  0  0  0  0  0  0  0  0  0  0
+          0  0  0  0  0  0  0  0  0  0  0  0  0  0  0  0  0
++         2  2  2  2  2  2  2  2  2  2  2  2  2  2  2  2  2
++         2  2  2  2  2  2  2  2  2  2  2  2  2  2  2  0  0
++         0  0  0  0  0  0  0  0  0  0  0  0  0  0  0  0  0
++         0  0  0  0  0  0  0  0  0  0  0  0  0  0  0  0  0
++         0  0  0  0  0  0  0  0  0  0  0  0  0  0  0  0  0
%c cc cc ccc ccc cccc cccc cccc cccc ccccc ccccc ccccc ccccc
%c cc cc ccc ccc cccc cccc cccc cccc ccccc ccccc ccccc ccccc
%f  0.0000000  0.000000000  0.00000000000  0.000000000000000
%f  0.0000000  0.000000000  0.00000000000  0.000000000000000
%i    0    0    0    0      0      0      0      0         0
%i    0    0    0    0      0      0      0      0         0
/*     NSWCDD DAHLGREN,VA                                   
/*   EPHEMERIS COMPUTED FROM  1 DAYS OF DATA
/*   EPOCHA SMOOTHER  
/* CCCCCCCCCCCCCCCCCCCCCCCCCCCCCCCCCCCCCCCCCCCCCCCCCCCCCCCCC
*  2012  7  1  2 20  0.00000000                                                 
P  1  22457.460840  13288.827996   5059.063180    263.674106                    
V  1   3327.002663   6147.833872 -30833.461207      0.016083                    
P  2  -8810.950610 -20536.098225  14864.561631    395.380941                    
V  2  15989.291866   9555.382771  22383.902496      0.012125                    
P  3   3509.623852  16121.724393 -21257.659942     69.403038                    
V  3 -23122.529095  12026.697109   5698.791221      0.049750                    
P  4   4668.333260 -15661.887574  20633.628922    230.321780                    
V  4  21689.358990  15986.727296   7452.542236      0.113614                    
P  5  -2696.145787 -24818.199479  -8898.074300   -330.428307                    
V  5   4610.178087 -10762.621771  28804.357419     -0.035553                    
P  6  -2231.685657  17132.578877 -19976.112935     12.512915                    
V  6 -24015.050909   9503.603243  11078.407760     -0.043949                    
P  7  20909.859740   2990.052783 -16243.690758     95.886750                    
V  7  14926.822082  14161.077205  21532.672439      0.037625                    
P  8  12104.384519  -8159.126747 -22158.103651      1.628853                    
V  8  20193.274188  19628.426657   3229.380411      0.001189                    
P  9 -20926.651892 -16294.153380    103.411780    168.716640                    
V  9    670.245051  -2170.205962 -32306.608203      0.025550                    
P 10   9511.665907 -23322.406712   7505.066474    -43.198924                    
V 10   1724.799765  10437.714739  29663.464202     -0.012978                    
P 11  22800.197570  13384.863354  -4305.985324   -277.119537                    
V 11  -6443.431790   2337.580218 -29210.302424     -0.038952                    
P 12 -11895.358846 -11907.558063  20585.491029     77.462891                    
V 12   5248.313606 -25532.068437 -11538.950694      0.020792                    
P 13  25880.826533  -5232.164887   3225.826033    197.562761                    
V 13  -3549.219085   3029.467590  31882.206444     -0.024510                    
P 14 -18486.421978  14574.543086  12331.135004    206.240760                    
V 14 -15259.139978   2820.146680 -26745.372698      0.007572                    
P 15 -17263.259404  -7510.773953 -18822.157264    -92.109334                    
V 15  21437.706445 -10594.260967 -15227.718003     -0.003096                    
P 16   1233.462782  24803.944721  -8958.940782   -239.785190                    
V 16  -4394.201017  10799.420598  29607.844356     -0.010937                    
P 17  19071.315468 -14786.274286  11001.206426    116.933097                    
V 17  13830.791509  -2200.601235 -27611.341750     -0.029683                    
P 18 -15629.631189   9850.248735 -18583.043923    203.083950                    
V 18   1846.251252 -24622.166415 -14685.018352      0.018028                    
P 19  14854.156187  10054.231849 -19765.466000   -280.355334                    
V 19 -23592.364731   7917.984281 -13345.005715     -0.036264                    
P 20  14804.862637   7091.725631  20733.466244     64.338552                    
V 20  -3580.382415  26566.739470  -6415.149411      0.003603                    
P 21 -19484.380631   1257.010799 -17748.362657   -233.638003                    
V 21 -17089.430991 -16153.487192  16565.954905     -0.024832                    
P 22 -10375.029940  22675.160176  -8770.629576    145.057626                    
V 22  -1773.936079 -11932.935794 -28280.831018      0.004650                    
P 23  22705.938162   1919.709279  13997.933431    189.994424                    
V 23 -15760.463318   7975.016268  24163.773407     -0.038187                    
P 25 -15319.926355   3841.325696  21306.110164     36.326148                    
V 25   3219.642070 -26942.738782   7221.526112      0.007078                    
P 26  -3770.046747 -14531.063997 -22526.784771   -359.515538                    
V 26  25997.306747  -7462.350509    829.653294      0.108135                    
P 27 -19845.115133 -17588.207276  -3487.430360    404.375159                    
V 27   5163.606098   1620.399846 -31484.472897      0.039787                    
P 28  11758.100528 -20681.098585 -11021.525976    160.280880                    
V 28   -782.127889  15039.677407 -27888.714584      0.039444                    
P 29 -25274.508675   3091.352913   7532.044589    328.937465                    
V 29   8149.823536  -5504.852057  29897.547379      0.039305                    
P 30  -2427.326295  26379.093063   1574.087925   -269.502063                    
V 30  -2720.625588  -2574.985571  31661.866937     -0.247822                    
P 31  -2610.411884  16155.492759  21052.244758    256.855115                    
V 31 -20730.021797 -16208.943624  10192.574681      0.029041                    
P 32   9592.515329  16778.448903  18625.093439   -460.161202                    
V 32  -6709.018835  22131.507730 -16189.223587     -0.041203                    
EOF
